NORAD_CAT_ID,OBJECT_NAME,OBJECT_TYPE,EPOCH,MEAN_MOTION,ECCENTRICITY,INCLINATION,RA_OF_ASC_NODE,ARG_OF_PERICENTER,MEAN_ANOMALY,BSTAR,MEAN_MOTION_DOT,MEAN_MOTION_DDOT,TLE_LINE0,TLE_LINE1,TLE_LINE2,SEMIMAJOR_AXIS,PERIOD,APOGEE,PERIGEE,DECAYED
55402.0,STARLINK-5071,PAYLOAD,2024-04-05 04:07:21,14.98334384,0.00029,70.0011,38.342,269.5583,90.5244,0.00013292,1.494e-05,0.0,0 STARLINK-5071,1 55402U 23014M   24096.17178191  .00001494  00000-0  13292-3 0  9990,2 55402  70.0011  38.3420 0002900 269.5583  90.5244 14.98334384 65738,6950.179,96.107,574.06,570.029,0.0
55402.0,STARLINK-5071,PAYLOAD,2024-04-05 13:44:10,14.98329157,0.0002838,70.0011,37.3315,270.3624,89.721,0.00013118,1.473e-05,0.0,0 STARLINK-5071,1 55402U 23014M   24096.57234460  .00001473  00000-0  13118-3 0  9990,2 55402  70.0011  37.3315 0002838 270.3624  89.7210 14.98329157 66732,6950.195,96.107,574.033,570.088,0.0
55402.0,STARLINK-5071,PAYLOAD,2024-04-05 21:44:50,14.98329073,0.0002911,70.0013,36.4898,269.7307,90.3518,7.329e-05,7.82e-06,0.0,0 STARLINK-5071,1 55402U 23014M   24096.90614540  .00000782  00000-0  73290-4 0  9998,2 55402  70.0013  36.4898 0002911 269.7307  90.3518 14.98329073 66783,6950.196,96.107,574.084,570.038,0.0
55402.0,STARLINK-5071,PAYLOAD,2024-04-06 04:09:22,14.98332902,0.0002876,70.0015,35.8174,268.9129,91.1701,6.3724e-05,6.68e-06,0.0,0 STARLINK-5071,1 55402U 23014M   24097.17318286  .00000668  00000-0  63724-4 0  9990,2 55402  70.0015  35.8174 0002876 268.9129  91.1701 14.98332902 65886,6950.184,96.107,574.048,570.05,0.0
55402.0,STARLINK-5071,PAYLOAD,2024-04-06 13:46:11,14.98330913,0.0002891,70.0016,34.8075,256.6477,103.436,3.9728e-05,3.81e-06,0.0,0 STARLINK-5071,1 55402U 23014M   24097.57374330  .00000381  00000-0  39728-4 0  9995,2 55402  70.0016  34.8075 0002891 256.6477 103.4360 14.98330913 66882,6950.19,96.107,574.064,570.046,0.0
55402.0,STARLINK-5071,PAYLOAD,2024-04-06 21:46:51,14.98335007,0.000275,70.0017,33.9657,271.8787,88.2057,1.7269e-05,1.13e-06,0.0,0 STARLINK-5071,1 55402U 23014M   24097.90754149  .00000113  00000-0  17269-4 0  9991,2 55402  70.0017  33.9657 0002750 271.8787  88.2057 14.98335007 66934,6950.177,96.107,573.954,570.131,0.0
55402.0,STARLINK-5071,PAYLOAD,2024-04-07 05:47:31,14.98338199,0.0002743,70.0018,33.1241,271.4622,88.6223,2.142e-05,1.63e-06,0.0,0 STARLINK-5071,1 55402U 23014M   24098.24133834  .00000163  00000-0  21420-4 0  9990,2 55402  70.0018  33.1241 0002743 271.4622  88.6223 14.98338199 66981,6950.168,96.106,573.939,570.126,0.0
55402.0,STARLINK-5071,PAYLOAD,2024-04-07 18:36:36,14.98333459,0.0002448,70.0022,31.7777,274.8605,85.2274,-6.6006e-05,-8.8e-06,0.0,0 STARLINK-5071,1 55402U 23014M   24098.77542361 -.00000880  00000-0 -66006-4 0  9994,2 55402  70.0022  31.7777 0002448 274.8605  85.2274 14.98333459 66123,6950.182,96.107,573.749,570.346,0.0
55402.0,STARLINK-5071,PAYLOAD,2024-04-07 21:48:52,14.9833213,0.0002465,70.0021,31.441,274.8005,85.2873,-8.1331e-05,-1.063e-05,0.0,0 STARLINK-5071,1 55402U 23014M   24098.90894447 -.00001063  00000-0 -81331-4 0  9996,2 55402  70.0021  31.4410 0002465 274.8005  85.2873 14.98332130 67082,6950.186,96.107,573.765,570.338,0.0
55402.0,STARLINK-5071,PAYLOAD,2024-04-08 12:14:05,14.9833493,0.0002757,70.0016,29.927,266.503,93.5813,-6.4969e-05,-8.68e-06,0.0,0 STARLINK-5071,1 55402U 23014M   24099.50978136 -.00000868  00000-0 -64969-4 0  9991,2 55402  70.0016  29.9270 0002757 266.5030  93.5813 14.98334930 67178,6950.178,96.107,573.959,570.126,0.0
55402.0,STARLINK-5071,PAYLOAD,2024-04-08 23:27:01,14.98331567,0.0002983,70.0011,28.7484,267.9071,92.1746,5.0618e-05,5.11e-06,0.0,0 STARLINK-5071,1 55402U 23014M   24099.97709965  .00000511  00000-0  50618-4 0  9993,2 55402  70.0011  28.7484 0002983 267.9071  92.1746 14.98331567 67249,6950.188,96.107,574.126,569.98,0.0
55402.0,STARLINK-5071,PAYLOAD,2024-04-09 04:15:25,14.98333845,0.0002706,70.0013,28.2425,267.5813,92.5036,5.0568e-05,5.11e-06,0.0,0 STARLINK-5071,1 55402U 23014M   24100.17737804  .00000511  00000-0  50568-4 0  9995,2 55402  70.0013  28.2425 0002706 267.5813  92.5036 14.98333845 66330,6950.181,96.107,573.927,570.165,0.0
55402.0,STARLINK-5071,PAYLOAD,2024-04-09 05:51:33,14.98334398,0.0002685,70.0014,28.0741,267.4562,92.629,3.8643e-05,3.68e-06,0.0,0 STARLINK-5071,1 55402U 23014M   24100.24413787  .00000368  00000-0  38643-4 0  9994,2 55402  70.0014  28.0741 0002685 267.4562  92.6290 14.98334398 67288,6950.179,96.107,573.91,570.178,0.0
55402.0,STARLINK-5071,PAYLOAD,2024-04-10 04:17:27,14.9832543,0.0002506,70.0016,25.7172,265.9144,94.1729,2.9931e-05,2.64e-06,0.0,0 STARLINK-5071,1 55402U 23014M   24101.17878548  .00000264  00000-0  29931-4 0  9992,2 55402  70.0016  25.7172 0002506 265.9144  94.1729 14.98325430 66485,6950.207,96.107,573.814,570.33,0.0
55402.0,STARLINK-5071,PAYLOAD,2024-04-10 12:18:07,14.98344778,0.0002353,70.0024,24.8761,275.1016,84.9875,-0.00033395,-4.077e-05,0.0,0 STARLINK-5071,1 55402U 23014M   24101.51258220 -.00004077  00000-0 -33395-3 0  9995,2 55402  70.0024  24.8761 0002353 275.1016  84.9875 14.98344778 66530,6950.147,96.106,573.648,570.377,0.0
55402.0,STARLINK-5071,PAYLOAD,2024-04-10 20:18:47,14.9832839,0.000277,70.001,24.0334,269.4003,90.6839,3.5674e-06,-5e-07,0.0,0 STARLINK-5071,1 55402U 23014M   24101.84638439 -.00000050  00000-0  35674-5 0  9995,2 55402  70.0010  24.0334 0002770 269.4003  90.6839 14.98328390 66589,6950.198,96.107,573.988,570.138,0.0
55402.0,STARLINK-5071,PAYLOAD,2024-04-10 21:54:55,14.98327838,0.0002795,70.0006,23.8653,268.9843,91.0995,-5.4702e-06,-1.58e-06,0.0,0 STARLINK-5071,1 55402U 23014M   24101.91314501 -.00000158  00000-0 -54702-5 0  9997,2 55402  70.0006  23.8653 0002795 268.9843  91.0995 14.98327838 67538,6950.2,96.107,574.007,570.122,0.0
55402.0,STARLINK-5071,PAYLOAD,2024-04-11 12:20:08,14.98330085,0.0002772,70.0007,22.3507,264.4904,95.5939,4.3509e-05,4.26e-06,0.0,0 STARLINK-5071,1 55402U 23014M   24102.51398251  .00000426  00000-0  43509-4 0  9996,2 55402  70.0007  22.3507 0002772 264.4904  95.5939 14.98330085 67620,6950.193,96.107,573.984,570.131,0.0
55402.0,STARLINK-5071,PAYLOAD,2024-04-11 20:20:48,14.98330565,0.0002784,70.0006,21.5092,269.1189,90.9651,5.8547e-05,6.06e-06,0.0,0 STARLINK-5071,1 55402U 23014M   24102.84778221  .00000606  00000-0  58547-4 0  9999,2 55402  70.0006  21.5092 0002784 269.1189  90.9651 14.98330565 66733,6950.191,96.107,573.991,570.121,0.0
55402.0,STARLINK-5071,PAYLOAD,2024-04-11 21:56:56,14.98330541,0.0002789,70.0006,21.3409,269.1333,90.9507,5.6976e-05,5.87e-06,0.0,0 STARLINK-5071,1 55402U 23014M   24102.91454226  .00000587  00000-0  56976-4 0  9995,2 55402  70.0006  21.3409 0002789 269.1333  90.9507 14.98330541 67688,6950.191,96.107,573.995,570.118,0.0
55402.0,STARLINK-5071,PAYLOAD,2024-04-12 04:21:28,14.9833329,0.0002778,70.0008,20.668,270.0099,90.0742,8.4121e-05,9.11e-06,0.0,0 STARLINK-5071,1 55402U 23014M   24103.18157978  .00000911  00000-0  84121-4 0  9993,2 55402  70.0008  20.6680 0002778 270.0099  90.0742 14.98333290 67722,6950.183,96.107,573.978,570.117,0.0
55402.0,STARLINK-5071,PAYLOAD,2024-04-12 21:58:57,14.98332073,0.0002804,70.0006,18.8166,270.1579,89.9259,6.7579e-05,7.13e-06,0.0,0 STARLINK-5071,1 55402U 23014M   24103.91593989  .00000713  00000-0  67579-4 0  9998,2 55402  70.0006  18.8166 0002804 270.1579  89.9259 14.98332073 67832,6950.186,96.107,574.0,570.103,0.0
55402.0,STARLINK-5071,PAYLOAD,2024-04-13 04:23:29,14.98335489,0.0002813,70.0006,18.1433,270.4255,89.6582,8.8811e-05,9.67e-06,0.0,0 STARLINK-5071,1 55402U 23014M   24104.18297687  .00000967  00000-0  88811-4 0  9997,2 55402  70.0006  18.1433 0002813 270.4255  89.6582 14.98335489 66936,6950.176,96.107,573.996,570.086,0.0
55402.0,STARLINK-5071,PAYLOAD,2024-04-13 20:24:50,14.98331259,0.0002753,70.0009,16.4601,270.6367,89.4477,-6.4905e-07,-1.01e-06,0.0,0 STARLINK-5071,1 55402U 23014M   24104.85058077 -.00000101  00000-0 -64905-6 0  9991,2 55402  70.0009  16.4601 0002753 270.6367  89.4477 14.98331259 67030,6950.189,96.107,573.967,570.141,0.0
55402.0,STARLINK-5071,PAYLOAD,2024-04-14 20:26:51,14.98330565,0.0002615,70.0011,13.9354,267.1884,92.8975,4.1224e-06,-4.4e-07,0.0,0 STARLINK-5071,1 55402U 23014M   24105.85197972 -.00000044  00000-0  41224-5 0  9993,2 55402  70.0011  13.9354 0002615 267.1884  92.8975 14.98330565 67188,6950.191,96.107,573.874,570.239,0.0
55402.0,STARLINK-5071,PAYLOAD,2024-04-14 22:02:59,14.98332288,0.0002659,70.0011,13.7671,266.0406,94.0449,-2.4081e-05,-3.8e-06,0.0,0 STARLINK-5071,1 55402U 23014M   24105.91873945 -.00000380  00000-0 -24081-4 0  9996,2 55402  70.0011  13.7671 0002659 266.0406  94.0449 14.98332288 68134,6950.186,96.107,573.899,570.203,0.0
55402.0,STARLINK-5071,PAYLOAD,2024-04-15 04:27:31,14.98333727,0.0002535,70.0012,13.0936,263.8077,96.2793,5.0971e-05,5.15e-06,0.0,0 STARLINK-5071,1 55402U 23014M   24106.18577602  .00000515  00000-0  50971-4 0  9992,2 55402  70.0012  13.0936 0002535 263.8077  96.2793 14.98333727 68173,6950.181,96.107,573.808,570.284,0.0
55402.0,STARLINK-5071,PAYLOAD,2024-04-15 20:28:51,14.98329624,0.0002519,70.0015,11.4117,249.8799,110.209,3.3969e-05,3.12e-06,0.0,0 STARLINK-5071,1 55402U 23014M   24106.85337796  .00000312  00000-0  33969-4 0  9997,2 55402  70.0015  11.4117 0002519 249.8799 110.2090 14.98329624 67331,6950.194,96.107,573.81,570.308,0.0
55402.0,STARLINK-5071,PAYLOAD,2024-04-16 10:54:05,14.98324999,0.0002706,70.0007,9.8955,274.7594,85.3256,-9.4781e-05,-1.223e-05,0.0,0 STARLINK-5071,1 55402U 23014M   24107.45422626 -.00001223  00000-0 -94781-4 0  9994,2 55402  70.0007   9.8955 0002706 274.7594  85.3256 14.98324999 67427,6950.208,96.107,573.954,570.193,0.0
55402.0,STARLINK-5071,PAYLOAD,2024-04-16 20:30:54,14.98317181,0.0002701,70.0007,8.8857,269.4548,90.6302,-0.00011442,-1.457e-05,0.0,0 STARLINK-5071,1 55402U 23014M   24107.85479449 -.00001457  00000-0 -11442-3 0  9994,2 55402  70.0007   8.8857 0002701 269.4548  90.6302 14.98317181 67484,6950.233,96.108,573.975,570.22,0.0
